{
"type": "FeatureCollection",
"name": "exp_bw_weh",
"crs": { "type": "name", "properties": { "name": "urn:ogc:def:crs:EPSG::3857" } },
"features": [
{ "type": "Feature", "properties": { "ID_con": 1762, "bw_id": "DIN_WEH_1650", "name": "Dinkelwehr Neuenhaus", "GEW": "DIN", "stat_von": 1650, "bauart": "zweifeldriges hydraulisches Klappenwehr", "baujahr": "1974", "upflicht": "NLWKN", "KTR": "MBGVE00700", "FSK": "033147008000940060__", "bemerk": null, "beschreib": "Dinkelwehr Neuenhaus (zweifeldriges hydraulisches Klappenwehr) mit Umgehungsgerinne. Die Umstellung von Sommer-/Winterstau erfolgt in der Zeit vom 01.04-15.04 und vom 01.10-15.10.", "beschreib_lang": "Dinkelwehr Neuenhaus (zweifeldriges hydraulisches Klappenwehr) mit Umgehungsgerinne. Die Umstellung von Sommer-/Winterstau erfolgt in der Zeit vom 01.04-15.04 und vom 01.10-15.10._x000d_\n1997: Beton- und Gebäudesanierung, 2003: Erneuerung der hydraul. Anlage (Zylinder)", "foto1": "https://nlwkn.hannit-share.de/index.php/core/preview?fileId=11068399&x=1280&y=819&a=true", "foto2": "https://nlwkn.hannit-share.de/index.php/core/preview?fileId=11068402&x=1280&y=819&a=true", "foto3": "https://nlwkn.hannit-share.de/index.php/core/preview?fileId=11068405&x=1280&y=819&a=true", "foto4": "https://nlwkn.hannit-share.de/index.php/core/preview?fileId=11068408&x=1280&y=819&a=true", "link1": "https://nlwkn.hannit-share.de/index.php/core/preview?fileId=11066551&x=1280&y=819&a=true", "link2": null, "denkmal": "Nein", "AIS_NR": 663, "BW_buch": null, "Felder": 2, "Lichte_Breite": "11,0", "Niedr_Klappe": 14.0, "Ziel_OW1": 16.100000381469702, "Ziel_OW2": 16.100000381469702, "UW": 11.829999923706101, "Sohle_OW": 13.5, "Sohle_UW": 11.829999923706101, "Sohle_Tosb": 11.829999923706101, "Lage_Endschw": 12.829999923706101, "Fischpass": "Umgehungsgerinne", "tmp": 1762, "rwert": 361730, "hwert": 5817989 }, "geometry": { "type": "Point", "coordinates": [ 775146.455832283361815, 6890034.090473066084087 ] } },
{ "type": "Feature", "properties": { "ID_con": 1763, "bw_id": "ELK_WEH_10", "name": "Entlastungswehr", "GEW": "ELK", "stat_von": 10, "bauart": "Klappenwehr", "baujahr": "1882/83", "upflicht": "NLWKN", "KTR": "MBLVE20400", "FSK": "033129007000250014__", "bemerk": null, "beschreib": "Das Entlastungswehr mit dem dazugehörigen Bediengebäude liegt bei km 14+500 des Piccardie-Coevorden-Kanals in der Gemeinde Emlichheim.", "beschreib_lang": "Das Entlastungswehr mit dem dazugehörigen Bediengebäude liegt bei km 14+500 des Piccardie-Coevorden-Kanals in der Gemeinde Emlichheim. Über dieses Wehr wird der Wasserstand im Kanal zwischen den Schleusen II und III bestimmt. Die Wasserführung im Entlastungskanal ergibt sich im Wesentlichen aus den Abflüssen, die über das Entlastungswehr aus dem Piccardie-Coevorden-Kanal abgeleitet werden. Die Wehranlage wurde im Jahre 1989 umgebaut und teilweise erneuert. Das Wehr ist in das Fernüberwachungssystem integriert. Die Regelung des Wasserstandes erfolgt automatisch._x000d_\n _x000d_\nHFP Bolzen Mitte Brücke zur Wehrklappe : 15,161 m NN ; Ecke Pegelhaus : 15,090 m NN ; Pegelschacht im Wehrhaus (Eisenkante) : 15,230 m NN ; Oberkante Sandstein Höhe Wehrklappe : 15,073 m NN ; Pegelnullpunkt : 12,73 m NN ;_x000d_\n_x000d_\nDie maximale Abflussmenge über das Entlastungswehr bei Oberwasser NN = 14,10 m beträgt 10,71 cbm/s", "foto1": "https://nlwkn.hannit-share.de/index.php/core/preview?fileId=11067406&x=1280&y=819&a=true", "foto2": "https://nlwkn.hannit-share.de/index.php/core/preview?fileId=11067409&x=1280&y=819&a=true", "foto3": "https://nlwkn.hannit-share.de/index.php/core/preview?fileId=11067412&x=1280&y=819&a=true", "foto4": "https://nlwkn.hannit-share.de/index.php/core/preview?fileId=11067415&x=1280&y=819&a=true", "link1": null, "link2": null, "denkmal": "Ja", "AIS_NR": 1188, "BW_buch": null, "Felder": 1, "Lichte_Breite": "5,13", "Niedr_Klappe": null, "Ziel_OW1": 13.699999809265099, "Ziel_OW2": null, "UW": 9.25, "Sohle_OW": null, "Sohle_UW": 9.25, "Sohle_Tosb": null, "Lage_Endschw": null, "Fischpass": "kein", "tmp": 1763, "rwert": 357038, "hwert": 5832104 }, "geometry": { "type": "Point", "coordinates": [ 766781.150991961359978, 6913031.571163152344525 ] } },
{ "type": "Feature", "properties": { "ID_con": 1765, "bw_id": "GFD_WEH_0", "name": "Kanalauslasswehr (WSV)", "GEW": "GFD", "stat_von": 0, "bauart": "Klappenwehr", "baujahr": "1965", "upflicht": "WSV", "KTR": null, "FSK": "031847029000070001__", "bemerk": null, "beschreib": "Wehranlage in der Unterhaltungspflicht der WSV mit einer Gesamtbreite von 35,610 m. Die Wehröffnung beträgt 14,00  m", "beschreib_lang": "Wehranlage in der Unterhaltungspflicht der WSV mit einer Gesamtbreite von 35,610 m. Die Wehröffnung beträgt 4,20 m. KOK: 6,25 m NN, Sohle (UW) 0,60  m NN", "foto1": "https://nlwkn.hannit-share.de/index.php/core/preview?fileId=11066539&x=1280&y=819&a=true", "foto2": "https://nlwkn.hannit-share.de/index.php/core/preview?fileId=11066542&x=1280&y=819&a=true", "foto3": "https://nlwkn.hannit-share.de/index.php/core/preview?fileId=11066545&x=1280&y=819&a=true", "foto4": "https://nlwkn.hannit-share.de/index.php/core/preview?fileId=11066548&x=1280&y=819&a=true", "link1": "https://nlwkn.hannit-share.de/index.php/core/preview?fileId=11065978&x=1280&y=819&a=true", "link2": null, "denkmal": "Nein", "AIS_NR": 0, "BW_buch": null, "Felder": 4, "Lichte_Breite": "14 / 3,5 / 3,5 / 3,5", "Niedr_Klappe": 0.0, "Ziel_OW1": 5.0, "Ziel_OW2": 0.0, "UW": 0.60000002384185802, "Sohle_OW": 1.46000003814697, "Sohle_UW": 0.60000002384185802, "Sohle_Tosb": 0.0, "Lage_Endschw": 0.0, "Fischpass": "kein", "tmp": 1765, "rwert": 390254, "hwert": 5872174 }, "geometry": { "type": "Point", "coordinates": [ 819878.10642612783704, 6980758.505049016326666 ] } },
{ "type": "Feature", "properties": { "ID_con": 1764, "bw_id": "GFD_WEH_4520", "name": "Wehr Goldfischdever", "GEW": "GFD", "stat_von": 4520, "bauart": "einfeldriges hydraulisches Klappenwehr", "baujahr": "1966", "upflicht": "NLWKN", "KTR": "MBGEN00100", "FSK": "03184700100007______", "bemerk": null, "beschreib": "Wehr Goldfischdever (einfeldriges hydraulisches Klappenwehr) mit  Beckenfischpass. Die Umstellung auf Sommerstau erfolgt ab 01.04, auf Winterstau ab 01.11. Das Stauziel liegt im Sommer bei 3,60 m NN im Winter bei 3,50 m NN.", "beschreib_lang": "Wehr Goldfischdever (einfeldriges hydraulisches Klappenwehr) mit Beckenfischpass. Die Umstellung auf Sommerstau erfolgt ab 01.04, auf Winterstau ab 01.11. Das Stauziel liegt im Sommer bei 3,60 m NN, im Winter bei 3,50 m NN. 2014: Sanierung Fischpass (FGE, mit neuen Schitzen, Sohlauflage und Störsteinen), 2014 Korrosionschutzarbeiten an Spundwänden und Geländer, 2019 Umbau der Steuerungstechnik mit Fernüberwachung (Graupe).", "foto1": "https://nlwkn.hannit-share.de/index.php/core/preview?fileId=11066554&x=1280&y=819&a=true", "foto2": "https://nlwkn.hannit-share.de/index.php/core/preview?fileId=11066557&x=1280&y=819&a=true", "foto3": "https://nlwkn.hannit-share.de/index.php/core/preview?fileId=11066560&x=1280&y=819&a=true", "foto4": "https://nlwkn.hannit-share.de/index.php/core/preview?fileId=11066563&x=1280&y=819&a=true", "link1": null, "link2": null, "denkmal": "Nein", "AIS_NR": 656, "BW_buch": null, "Felder": 1, "Lichte_Breite": null, "Niedr_Klappe": null, "Ziel_OW1": 3.5999999046325701, "Ziel_OW2": 3.5, "UW": 0.0, "Sohle_OW": null, "Sohle_UW": 0.0, "Sohle_Tosb": null, "Lage_Endschw": null, "Fischpass": "Fischtreppe als Beckenfischpass, der 2013 optimiert wurde. U.a. wurde Kies als Sohlauflage eingebracht und die Strömungslenkung optimniert", "tmp": 1764, "rwert": 388118, "hwert": 5875176 }, "geometry": { "type": "Point", "coordinates": [ 816221.7821784268599, 6985666.547927648760378 ] } },
{ "type": "Feature", "properties": { "ID_con": 1766, "bw_id": "HAS_WEH_34590", "name": "Auslassbauwerk HWRB - Haselünne", "GEW": "HAS", "stat_von": 34590, "bauart": "Auslassbauwerk (Rahmentragwerk mit Brückenplattte)", "baujahr": "2018", "upflicht": "NLWKN", "KTR": "MBBHA00100", "FSK": "033213018000030004__", "bemerk": "Bauwerk sollte in AIS als BG aufgenommen werdenL; Schild für Gewichtsbeschränkung (20t) fehlt, Max. Stauhöhe Polder = 17,73", "beschreib": "Auslassbauwerk (2018 neu errichtet) Die Brückenplatte ist für einspurigen Verkehr als Einfeldbrücke bemessen worden, sodass ein Unterhaltungsfahrzeug mit bis zu 20 to Eigengewicht diese überqueren kann.", "beschreib_lang": "Auslassbauwerk (2018 neu errichtet) Die Brückenplatte ist für einspurigen Verkehr als Einfeldbrücke bemessen worden, sodass ein Unterhaltungsfahrzeug mit bis zu 20 to Eigengewicht diese überqueren kann. Die Überfahrt ist nicht für den öffentlichen Straßenverkehr freigegeben.", "foto1": "https://nlwkn.hannit-share.de/index.php/core/preview?fileId=11065966&x=1280&y=819&a=true", "foto2": "https://nlwkn.hannit-share.de/index.php/core/preview?fileId=11065969&x=1280&y=819&a=true", "foto3": "https://nlwkn.hannit-share.de/index.php/core/preview?fileId=11065972&x=1280&y=819&a=true", "foto4": "https://nlwkn.hannit-share.de/index.php/core/preview?fileId=11065975&x=1280&y=819&a=true", "link1": "https://nlwkn.hannit-share.de/index.php/core/preview?fileId=11061620&x=1280&y=819&a=true", "link2": null, "denkmal": "Nein", "AIS_NR": 648, "BW_buch": "HAS-W1002_BWB", "Felder": 1, "Lichte_Breite": "3,50", "Niedr_Klappe": 0.0, "Ziel_OW1": 17.5, "Ziel_OW2": 17.7299995422363, "UW": 15.699999809265099, "Sohle_OW": 16.5, "Sohle_UW": 15.699999809265099, "Sohle_Tosb": 0.0, "Lage_Endschw": 0.0, "Fischpass": "kein", "tmp": 1766, "rwert": 398275, "hwert": 5836389 }, "geometry": { "type": "Point", "coordinates": [ 834415.846070925355889, 6921801.279933867044747 ] } },
{ "type": "Feature", "properties": { "ID_con": 1767, "bw_id": "HAS_WEH_37580", "name": "Einlassbauwerk HWRB-Haselünne", "GEW": "HAS", "stat_von": 37580, "bauart": "Einlassbauwerk (Schützenwehr)", "baujahr": "1972-1974", "upflicht": "NLWKN", "KTR": "MBBHA00100", "FSK": "03321400900063______", "bemerk": "Einlassbauwerk HWRB Hasselünne. Hier noch genauere Angaben machen. In AIS aufnehmen ???, KTR ???, max. Stauhöhe im Polder = 17,73 m NN", "beschreib": "Einlassbauwerk Hochwasserrückhaltebecken Haselünne. Die Füllung erfolgt über den Franzosengraben.  (Vorwarnung ab 330 cm WS am Pegel Haselünne, Füllung ab 360 cm WS)", "beschreib_lang": "Einlassbauwerk Hochwasserrückhaltebecken Haselünne. Die Füllung erfolgt über den Franzosengraben. (Vorwarnung ab 330 cm WS am Pegel Haselünne, Füllung ab 360 cm WS)", "foto1": "https://nlwkn.hannit-share.de/index.php/core/preview?fileId=11065987&x=1280&y=819&a=true", "foto2": "https://nlwkn.hannit-share.de/index.php/core/preview?fileId=11065984&x=1280&y=819&a=true", "foto3": "https://nlwkn.hannit-share.de/index.php/core/preview?fileId=11065993&x=1280&y=819&a=true", "foto4": null, "link1": null, "link2": null, "denkmal": "Nein", "AIS_NR": 648, "BW_buch": null, "Felder": 2, "Lichte_Breite": "3,5", "Niedr_Klappe": 16.5, "Ziel_OW1": 17.5, "Ziel_OW2": 17.7299995422363, "UW": 16.100000381469702, "Sohle_OW": 16.5, "Sohle_UW": 16.100000381469702, "Sohle_Tosb": 15.699999809265099, "Lage_Endschw": 16.0, "Fischpass": "kein (nicht erforderlich)", "tmp": 1767, "rwert": 399332, "hwert": 5835841 }, "geometry": { "type": "Point", "coordinates": [ 836173.8675194819225, 6920933.52795691601932 ] } },
{ "type": "Feature", "properties": { "ID_con": 1768, "bw_id": "KOR_WEH_1080", "name": "Kornmühlenwehr", "GEW": "KOR", "stat_von": 1080, "bauart": "einfeldriges hydraulisches Klappenwehr", "baujahr": "1988", "upflicht": "NLWKN", "KTR": "MBGVE00800", "FSK": "033151016001530010__", "bemerk": "Kein Tosbecken (Schussrinne), Denkmalschutz, Wasserkraft,…, Es soll eine Bauwerksprüfung nach Projekt am Ölmühlenwehr erfolgen (Siehe Vermerk v. 09.12.2022)", "beschreib": "Kornmühlenwehr (einfeldriges hydraulisches Klappenwehr) ohne Fischwanderhilfe. Das Bauwerk steht unter Denkmalschutz. Die Kornmühle liegt im Herzen der Nordhorner Innenstadt.Urkundlich erwähnt wurde die Kornmühle erstmals im Jahre 1396.", "beschreib_lang": "Die Kornmühle liegt im Herzen der Nordhorner Innenstadt.Die Wehranlage ist als Baudenkmal (ID: 36073325) eingestuft. Urkundlich erwähnt wurde die Kornmühle erstmals im Jahre 1396. Seit Ende des 14. Jahrhunderts wurde die Wasserkraft der Vechte am Standort Nordhorn zum Kornmahlen genutzt. Wann das erste Mühlengebäude errichtet wurde, ist nicht genau bekannt. Das jetzige Mühlengebäude stammt vermutlich aus dem Ende des 18. Jahrhunderts. Der Abschlussstein in der Vorderfront links oberhalb der Eingangstür besagt: &quot;Ab ovo Renovata Anno MDCCXCII&quot;, übersetzt heißt das &quot;von Grund auf renoviert anno 1792&quot;. Im Jahre 1873 wurde zusätzlich der Betrieb einer Sägemühle aufgenommen, die im Ersten Weltkrieg auch zur Erzeugung von Elektrizität genutzt wurde. 1931 erfolgte die Umstellung vom Wasserrad auf Turbinenkraft. Mittels dieser Neuerung wurde u. a. Roheis hergestellt. 1970 wurde der wirtschaftliche Betrieb eingestellt. Im Jahr 1989 wurde die Mühle restauriert und von der Stadt Nordhorn übernommen. Heute dient die Kornmühle als Veranstaltungsort für Konzerte und Ausstellungen.", "foto1": "https://nlwkn.hannit-share.de/index.php/core/preview?fileId=11062222&x=1280&y=819&a=true", "foto2": "https://nlwkn.hannit-share.de/index.php/core/preview?fileId=11062225&x=1280&y=819&a=true", "foto3": "https://nlwkn.hannit-share.de/index.php/core/preview?fileId=11062228&x=1280&y=819&a=true", "foto4": "https://nlwkn.hannit-share.de/index.php/core/preview?fileId=12044126&x=1280&y=819&a=true", "link1": null, "link2": null, "denkmal": "Ja", "AIS_NR": 1185, "BW_buch": null, "Felder": 1, "Lichte_Breite": "9,5", "Niedr_Klappe": 20.149999618530298, "Ziel_OW1": 21.649999618530298, "Ziel_OW2": 21.649999618530298, "UW": 18.350000381469702, "Sohle_OW": 19.840000152587901, "Sohle_UW": 18.350000381469702, "Sohle_Tosb": null, "Lage_Endschw": 20.0, "Fischpass": "kein", "tmp": 1768, "rwert": 368747, "hwert": 5811087 }, "geometry": { "type": "Point", "coordinates": [ 786947.671696193399839, 6879019.745387542061508 ] } },
{ "type": "Feature", "properties": { "ID_con": 1770, "bw_id": "PCK_WEH_7870", "name": "Schützwehr Umlauf Schleuse I PCK", "GEW": "PCK", "stat_von": 7870, "bauart": "Schützwehr", "baujahr": "2015", "upflicht": "NLWKN", "KTR": "MBLVE40900", "FSK": "033127004000790009__", "bemerk": null, "beschreib": "Schützwehr Umlauf Schleuse I PCK.", "beschreib_lang": "Um die Zuflussmengen zum Haren-Rütenbrock-Kanal kontrollieren bzw. beeinflussen zu können, wurden insgesamt 3 Bauwerke (1 x Süd-Nord-Kanal und 2 x Piccardie-Coevorden-Kanal) mit einer automatischen Steuerung ausgerüstet", "foto1": "https://nlwkn.hannit-share.de/index.php/core/preview?fileId=11061596&x=1280&y=819&a=true", "foto2": "https://nlwkn.hannit-share.de/index.php/core/preview?fileId=11061611&x=1280&y=819&a=true", "foto3": "https://nlwkn.hannit-share.de/index.php/core/preview?fileId=11061614&x=1280&y=819&a=true", "foto4": "https://nlwkn.hannit-share.de/index.php/core/preview?fileId=11061617&x=1280&y=819&a=true", "link1": null, "link2": null, "denkmal": "Ja", "AIS_NR": 0, "BW_buch": null, "Felder": 1, "Lichte_Breite": null, "Niedr_Klappe": 0.0, "Ziel_OW1": 15.5, "Ziel_OW2": 15.3999996185303, "UW": 0.0, "Sohle_OW": 0.0, "Sohle_UW": 0.0, "Sohle_Tosb": 0.0, "Lage_Endschw": 0.0, "Fischpass": "kein", "tmp": 1770, "rwert": 363079, "hwert": 5829748 }, "geometry": { "type": "Point", "coordinates": [ 776817.000819107401185, 6909436.5216781552881 ] } },
{ "type": "Feature", "properties": { "ID_con": 1769, "bw_id": "PCK_WEH_13590", "name": "Schützwehr Umlauf Schleuse II PCK", "GEW": "PCK", "stat_von": 13590, "bauart": "Schützwehr", "baujahr": "2015", "upflicht": "NLWKN", "KTR": "MBLVE42000", "FSK": "033128009000420021__", "bemerk": null, "beschreib": "Um die Zuflussmengen zum Haren-Rütenbrock-Kanal kontrollieren bzw. beeinflussen zu können, wurden insgesamt 3 Bauwerke (1 x Süd-Nord-Kanal und 2 x Piccardie-Coevorden-Kanal) mit einer automatischen Steuerung ausgerüstet", "beschreib_lang": "Um die Zuflussmengen zum Haren-Rütenbrock-Kanal kontrollieren bzw. beeinflussen zu können, wurden insgesamt 3 Bauwerke (1 x Süd-Nord-Kanal und 2 x Piccardie-Coevorden-Kanal) mit einer automatischen Steuerung ausgerüstet", "foto1": "https://nlwkn.hannit-share.de/index.php/core/preview?fileId=11061587&x=1280&y=819&a=true", "foto2": "https://nlwkn.hannit-share.de/index.php/core/preview?fileId=11061590&x=1280&y=819&a=true", "foto3": "https://nlwkn.hannit-share.de/index.php/core/preview?fileId=11061593&x=1280&y=819&a=true", "foto4": null, "link1": null, "link2": null, "denkmal": "Nein", "AIS_NR": 0, "BW_buch": null, "Felder": 1, "Lichte_Breite": null, "Niedr_Klappe": 0.0, "Ziel_OW1": 14.800000190734901, "Ziel_OW2": null, "UW": 0.0, "Sohle_OW": 0.0, "Sohle_UW": 0.0, "Sohle_Tosb": 0.0, "Lage_Endschw": 0.0, "Fischpass": "kein", "tmp": 1769, "rwert": 357863, "hwert": 5831872 }, "geometry": { "type": "Point", "coordinates": [ 768147.936568756820634, 6912689.106306897476315 ] } },
{ "type": "Feature", "properties": { "ID_con": 1771, "bw_id": "SNK_WEH_1065", "name": "Schützwehr Schleuse I", "GEW": "SNK", "stat_von": 1065, "bauart": "Schützwehr (mit autom. Antrieb/Steuerung)", "baujahr": "2016", "upflicht": "NLWKN", "KTR": "MBLVE10300", "FSK": "033151032001640080__", "bemerk": "Wie ist der Pegelnullpunkt vom OW?? WS z. Zeitpunkt der Messung bei 148 cm (Siehe Foto)", "beschreib": "Der Antrieb aller beweglichen Teile der Schleuse erfolgt mittels Zahnstangen und Zahnradübersetzungen vollkommen manuell.", "beschreib_lang": "Die Schleuse wurde in 2001 saniert. U.a. wurde das Mauerwerk der Schleusenkammer überarbeitet. 2017 wurden neue Absperrvorrichtungen als Ersatz für die Schleusentore ins Oberhaupt der Schleuse eingebaut. Mittels der verbauten Hubschütze wird der Wasserstand reguliert. Es sind keine Schleusungsvorgänge mehr möglich. Der Antrieb aller beweglichen Teile der Schleuse erfolgt mittels Zahnstangen und Zahnradübersetzungen vollkommen manuell.", "foto1": "https://nlwkn.hannit-share.de/index.php/core/preview?fileId=11060435&x=1280&y=819&a=true", "foto2": "https://nlwkn.hannit-share.de/index.php/core/preview?fileId=11060438&x=1280&y=819&a=true", "foto3": "https://nlwkn.hannit-share.de/index.php/core/preview?fileId=11060441&x=1280&y=819&a=true", "foto4": "https://nlwkn.hannit-share.de/index.php/core/preview?fileId=11060444&x=1280&y=819&a=true", "link1": null, "link2": null, "denkmal": "Ja", "AIS_NR": 0, "BW_buch": null, "Felder": 2, "Lichte_Breite": null, "Niedr_Klappe": 0.0, "Ziel_OW1": 21.399999618530298, "Ziel_OW2": 21.399999618530298, "UW": 17.0, "Sohle_OW": 19.200000762939499, "Sohle_UW": 17.0, "Sohle_Tosb": 0.0, "Lage_Endschw": 0.0, "Fischpass": "keine", "tmp": 1771, "rwert": 369508, "hwert": 5814338 }, "geometry": { "type": "Point", "coordinates": [ 788051.593603091314435, 6884388.401039791293442 ] } },
{ "type": "Feature", "properties": { "ID_con": 1774, "bw_id": "SNK_WEH_3790", "name": "Schützwehr Schleuse II", "GEW": "SNK", "stat_von": 3790, "bauart": "Schützwehr (mit autom. Antrieb/Steuerung)", "baujahr": "2017", "upflicht": "NLWKN", "KTR": "MBLVE10300", "FSK": "033151030004200031__", "bemerk": "Steuerung über Sperrvorrichtung??", "beschreib": "Die Schütze in den Absperrvorrichtungen werden manuell von einem Bediensteg aus bedient.", "beschreib_lang": "Bei der vorliegenden Kammerschleuse wurden alle Stemmtorpaare ausgebaut. Die Wasserstandsregulierung erfolgt über Absperrvorrichtungen, die 2017 in das Unterhaupt der Schleuse eingebaut wurden. Die Schütze in den Absperrvorrichtungen werden manuell von einem Bediensteg aus bedient. In 2001 wurde die Schleuse saniert. U.a. wurde das Mauerwerk der Schleusenkammer überarbeitet.", "foto1": "https://nlwkn.hannit-share.de/index.php/core/preview?fileId=11060471&x=1280&y=819&a=true", "foto2": "https://nlwkn.hannit-share.de/index.php/core/preview?fileId=11060474&x=1280&y=819&a=true", "foto3": "https://nlwkn.hannit-share.de/index.php/core/preview?fileId=11060477&x=1280&y=819&a=true", "foto4": "https://nlwkn.hannit-share.de/index.php/core/preview?fileId=11060480&x=1280&y=819&a=true", "link1": null, "link2": null, "denkmal": "Ja", "AIS_NR": 0, "BW_buch": null, "Felder": 2, "Lichte_Breite": null, "Niedr_Klappe": 0.0, "Ziel_OW1": 18.299999237060501, "Ziel_OW2": 18.200000762939499, "UW": 0.0, "Sohle_OW": 0.0, "Sohle_UW": 0.0, "Sohle_Tosb": 0.0, "Lage_Endschw": 0.0, "Fischpass": "keine", "tmp": 1774, "rwert": 370839, "hwert": 5816695 }, "geometry": { "type": "Point", "coordinates": [ 790129.589720534277149, 6888316.68211848847568 ] } },
{ "type": "Feature", "properties": { "ID_con": 1777, "bw_id": "SNK_WEH_7355", "name": "Schützwehr Schleuse III", "GEW": "SNK", "stat_von": 7355, "bauart": "Schützwehr (mit autom. Antrieb/Steuerung)", "baujahr": "2002", "upflicht": "NLWKN", "KTR": "MBGVE10300", "FSK": "033154012000040005__", "bemerk": "Steuerung über Sperrvorrichtung??", "beschreib": "Die Hubschütze werden manuell bedient.", "beschreib_lang": "Die Wasserstandsregulierung erfolgt durch einen Regulierungsverschluss mit Hubschützen im Oberhaupt. Der Regulierungsverschluss wurde 2017 als Ersatz für die Schleusentore im Oberhaupt eingebaut. Die Hubschütze werden manuell bedient.", "foto1": "https://nlwkn.hannit-share.de/index.php/core/preview?fileId=11060513&x=1280&y=819&a=true", "foto2": "https://nlwkn.hannit-share.de/index.php/core/preview?fileId=11060516&x=1280&y=819&a=true", "foto3": "https://nlwkn.hannit-share.de/index.php/core/preview?fileId=11060519&x=1280&y=819&a=true", "foto4": "https://nlwkn.hannit-share.de/index.php/core/preview?fileId=11060522&x=1280&y=819&a=true", "link1": null, "link2": null, "denkmal": "Ja", "AIS_NR": 0, "BW_buch": null, "Felder": 2, "Lichte_Breite": null, "Niedr_Klappe": 0.0, "Ziel_OW1": 17.200000762939499, "Ziel_OW2": 0.0, "UW": 0.0, "Sohle_OW": 0.0, "Sohle_UW": 0.0, "Sohle_Tosb": 0.0, "Lage_Endschw": 0.0, "Fischpass": null, "tmp": 1777, "rwert": 370664, "hwert": 5820114 }, "geometry": { "type": "Point", "coordinates": [ 789694.969839567551389, 6893926.770246831700206 ] } },
{ "type": "Feature", "properties": { "ID_con": 1772, "bw_id": "SNK_WEH_11010", "name": "Schützwehr Schleuse IV", "GEW": "SNK", "stat_von": 11010, "bauart": "Schützwehr", "baujahr": "2017", "upflicht": "NLWKN", "KTR": "MBLVE10300", "FSK": "033121015000010032__", "bemerk": null, "beschreib": "Zur Haltung des Oberwasserspiegels wurden im Unterhaupt 2017 die Tore ausgebaut und eine Wasserstandsregulierung mittels Schütze eingebaut. Die Schütze werden von einer Bedienbrücke manuell gefahren.", "beschreib_lang": "Zur Haltung des Oberwasserspiegels wurden im Unterhaupt 2017 die Tore ausgebaut und eine Wasserstandsregulierung mittels Schütze eingebaut. Die Schütze werden von einer Bedienbrücke manuell gefahren.", "foto1": "https://nlwkn.hannit-share.de/index.php/core/preview?fileId=11060447&x=1280&y=819&a=true", "foto2": "https://nlwkn.hannit-share.de/index.php/core/preview?fileId=11060450&x=1280&y=819&a=true", "foto3": "https://nlwkn.hannit-share.de/index.php/core/preview?fileId=11060453&x=1280&y=819&a=true", "foto4": "https://nlwkn.hannit-share.de/index.php/core/preview?fileId=11060456&x=1280&y=819&a=true", "link1": null, "link2": null, "denkmal": "Ja", "AIS_NR": 0, "BW_buch": null, "Felder": 2, "Lichte_Breite": null, "Niedr_Klappe": 0.0, "Ziel_OW1": 16.0, "Ziel_OW2": 0.0, "UW": 0.0, "Sohle_OW": 0.0, "Sohle_UW": 0.0, "Sohle_Tosb": 0.0, "Lage_Endschw": 0.0, "Fischpass": null, "tmp": 1772, "rwert": 369957, "hwert": 5823658 }, "geometry": { "type": "Point", "coordinates": [ 788381.38857219775673, 6899723.102624809369445 ] } },
{ "type": "Feature", "properties": { "ID_con": 1773, "bw_id": "SNK_WEH_34970", "name": "Schützwehr Schleuse V", "GEW": "SNK", "stat_von": 34970, "bauart": "Schützwehr", "baujahr": "2015", "upflicht": "NLWKN", "KTR": "MBLEN10100", "FSK": "033102030000140143__", "bemerk": null, "beschreib": "In 2002 wurden die Schleusentore des Unterhauptes neu gebaut und mit motorbetriebenen Schützen versehen. Die Schütze werden entsprechend einer Oberwassermessung mittels MSR-Technik automatisch gesteuert und sind an das Fernüberwachungssystem angeschlossen", "beschreib_lang": "In 2002 wurden die Schleusentore des Unterhauptes neu gebaut und mit motorbetriebenen Schützen versehen. Die Schütze werden entsprechend einer Oberwassermessung mittels MSR-Technik automatisch gesteuert. Die Schleuse wurde 2016 an das Fernüberwachungssystem angeschlossen.", "foto1": "https://nlwkn.hannit-share.de/index.php/core/preview?fileId=11060459&x=1280&y=819&a=true", "foto2": "https://nlwkn.hannit-share.de/index.php/core/preview?fileId=11060462&x=1280&y=819&a=true", "foto3": "https://nlwkn.hannit-share.de/index.php/core/preview?fileId=11060465&x=1280&y=819&a=true", "foto4": "https://nlwkn.hannit-share.de/index.php/core/preview?fileId=11060468&x=1280&y=819&a=true", "link1": null, "link2": null, "denkmal": "Ja", "AIS_NR": 0, "BW_buch": null, "Felder": 2, "Lichte_Breite": null, "Niedr_Klappe": 14.0, "Ziel_OW1": 15.5, "Ziel_OW2": 15.3999996185303, "UW": null, "Sohle_OW": 0.0, "Sohle_UW": null, "Sohle_Tosb": 0.0, "Lage_Endschw": 0.0, "Fischpass": "kein", "tmp": 1773, "rwert": 371976, "hwert": 5845885 }, "geometry": { "type": "Point", "coordinates": [ 790734.010580987087451, 6936453.661116926930845 ] } },
{ "type": "Feature", "properties": { "ID_con": 1775, "bw_id": "SNK_WEH_39475", "name": "Wehr Fehndorf", "GEW": "SNK", "stat_von": 39475, "bauart": "Klappenwehr", "baujahr": "1985/86", "upflicht": "NLWKN", "KTR": "MBGEN10100", "FSK": "031737037001040083__", "bemerk": "Mit Mobilfunk ausgestattet, PNP : 11,76 m NN", "beschreib": "Das Wehr Fehndorf liegt bei Kanal-km 39+475 des Süd-Nord-Kanals in der Stadt Haren, Landkreis Emsland. Das Wehr wurde am Standort der ehemaligen Schleuse VI errichtet.", "beschreib_lang": "Das Wehr Fehndorf liegt bei Kanal-km 39+475 des Süd-Nord-Kanals in der Stadt Haren, Landkreis Emsland. Das Wehr wurde am Standort der ehemaligen Schleuse VI errichtet. Es handelt sich um eine Wehranlage in Stahlbetonbauweise mit Fischbauchklappe. Die Regelung des Wehres erfolgt automatisch. Im Unterwasser des Wehres befindet sich ein rund 20 m langes Tosbecken aus Beton. Ein etwa 90 m langer Fischpass umgeht das Wehr an der Ostseite des Bauwerkes. In 2025 wurde die Wehranlage mit einer Betriebsbrücke ausgestattet._x000d_\nDie maximale Abflussmenge über das Wehr Fehndorf bei Oberwasser NN = 14,00 m beträgt 7,38 cbm/s", "foto1": "https://nlwkn.hannit-share.de/index.php/core/preview?fileId=11060483&x=1280&y=819&a=true", "foto2": "https://nlwkn.hannit-share.de/index.php/core/preview?fileId=11060486&x=1280&y=819&a=true", "foto3": "https://nlwkn.hannit-share.de/index.php/core/preview?fileId=11060489&x=1280&y=819&a=true", "foto4": "https://nlwkn.hannit-share.de/index.php/core/preview?fileId=11060492&x=1280&y=819&a=true", "link1": "https://nlwkn.hannit-share.de/index.php/core/preview?fileId=11060495&x=1280&y=819&a=true", "link2": null, "denkmal": "Nein", "AIS_NR": 1183, "BW_buch": "SNK-W1001_BWB", "Felder": 1, "Lichte_Breite": "3,2", "Niedr_Klappe": 13.0, "Ziel_OW1": 14.199999809265099, "Ziel_OW2": 14.199999809265099, "UW": null, "Sohle_OW": null, "Sohle_UW": null, "Sohle_Tosb": null, "Lage_Endschw": null, "Fischpass": "Umgehungsgerinne (90 m)", "tmp": 1775, "rwert": 372454, "hwert": 5850364 }, "geometry": { "type": "Point", "coordinates": [ 791327.770330258645117, 6943878.61765365395695 ] } },
{ "type": "Feature", "properties": { "ID_con": 1776, "bw_id": "SNK_WEH_44630", "name": "Wehr Altenberge", "GEW": "SNK", "stat_von": 44630, "bauart": "Klappenwehr", "baujahr": "1975", "upflicht": "NLWKN", "KTR": "MBGEN10200", "FSK": "03172602100174______", "bemerk": "?? Mit Mobilfunk ausgestattet", "beschreib": "Das Wehr Altenberge liegt bei km 44+630 des Süd-Nord-Kanals in der Stadt Haren, Landkreis Emsland. Es wurde am Standort der ehemaligen Schleuse VII errichtet,", "beschreib_lang": "Das Wehr Altenberge liegt bei km 44+630 des Süd-Nord-Kanals in der Stadt Haren, Landkreis Emsland. Es wurde am Standort der ehemaligen Schleuse VII errichtet, der sich etwa einen Kilometer südlich der Einmündung des Süd-Nord-Kanals in den Haren-Rütenbrock-Kanal befindet. Es handelt sich um eine Wehranlage in Stahlbetonweise mit Fischbauchklappe und Betriebsgebäude. Die Regelung des Wehres erfolgt automatisch. Im Unterwasser des Wehres befindet sich ein rund 7,50 m langes Tosbecken aus Beton. Rechts neben  Wehr und Tosbecken befindet sich ein 0,80 m breiter Beckenfischpass. Das Tosbecken ist mit einer Stahlbetonbrücke überbaut (BW-Nr. SNK-B1088).", "foto1": "https://nlwkn.hannit-share.de/index.php/core/preview?fileId=11060498&x=1280&y=819&a=true", "foto2": "https://nlwkn.hannit-share.de/index.php/core/preview?fileId=11060501&x=1280&y=819&a=true", "foto3": "https://nlwkn.hannit-share.de/index.php/core/preview?fileId=11060504&x=1280&y=819&a=true", "foto4": "https://nlwkn.hannit-share.de/index.php/core/preview?fileId=11060507&x=1280&y=819&a=true", "link1": "https://nlwkn.hannit-share.de/index.php/core/preview?fileId=11060510&x=1280&y=819&a=true", "link2": null, "denkmal": "Nein", "AIS_NR": 1184, "BW_buch": "SNK-W1002_BWB", "Felder": 1, "Lichte_Breite": "4,50", "Niedr_Klappe": null, "Ziel_OW1": 11.699999809265099, "Ziel_OW2": 11.699999809265099, "UW": null, "Sohle_OW": null, "Sohle_UW": null, "Sohle_Tosb": null, "Lage_Endschw": null, "Fischpass": "Beckenfischpass (0,80 m)", "tmp": 1776, "rwert": 373544, "hwert": 5855078 }, "geometry": { "type": "Point", "coordinates": [ 792922.999634848674759, 6951725.933143381029367 ] } },
{ "type": "Feature", "properties": { "ID_con": 2389, "bw_id": "SPA_WEH_3370", "name": "Kulturstau Preun", "GEW": "SPA", "stat_von": 3369, "bauart": "Schützwehr (Wehr mit 3 Gleitschützen aus Eichenholz, Handbetrieben)", "baujahr": "1939", "upflicht": "NLWKN", "KTR": "MBGEA00600", "FSK": "033357023000010003__", "bemerk": "FGE-Akz.: 62615-22-094", "beschreib": "Der Kulturstau Preun befindet sich im Landkreis Emsland zwischen den Gemeinden Emsbüren und Lünne. Es handelt sich um eine Stauanlage mit drei Schütztafeln und einer festen Wehrschwelle. Es gibt keinen festen Betriebsplan, Steuerung nach Bedarf.", "beschreib_lang": "Der Kulturstau Preun befindet sich im Landkreis Emsland zwischen den Gemeinden Emsbüren und Lünne bei Stat. 3+360. Bei dem Kulturstau handelt es sich um eine Stauanlage mit drei Schütztafeln und einer festen Wehrschwelle. Die Anlage hat keinen festen Betriebsplan und wird nach Bedarf gesteuert._x000d_\nDas Wehr ist bedingt betriebsbereit. Um dieses Wehr auf Dauer betriebsbereit zu halten, muss der gesamte Beton, die Metallführungen der Schütze, sowie die Schütze selber saniert_x000d_\nbzw. erneuert werden (Stand Januar 2025)", "foto1": "https://nlwkn.hannit-share.de/index.php/core/preview?fileId=11058125&x=1280&y=819&a=true", "foto2": "https://nlwkn.hannit-share.de/index.php/core/preview?fileId=11058128&x=1280&y=819&a=true", "foto3": "https://nlwkn.hannit-share.de/index.php/core/preview?fileId=11058131&x=1280&y=819&a=true", "foto4": "https://nlwkn.hannit-share.de/index.php/core/preview?fileId=11058134&x=1280&y=819&a=true", "link1": null, "link2": null, "denkmal": "Nein", "AIS_NR": 655, "BW_buch": null, "Felder": 3, "Lichte_Breite": null, "Niedr_Klappe": null, "Ziel_OW1": 26.049999237060501, "Ziel_OW2": 26.680000305175799, "UW": 24.7399997711182, "Sohle_OW": 24.7399997711182, "Sohle_UW": 24.7399997711182, "Sohle_Tosb": 0.0, "Lage_Endschw": 0.0, "Fischpass": "kein", "tmp": 2389, "rwert": 390814, "hwert": 5806549 }, "geometry": { "type": "Point", "coordinates": [ 823230.49764406203758, 6872462.20842559915036 ] } },
{ "type": "Feature", "properties": { "ID_con": 2390, "bw_id": "SPA_WEH_5340", "name": "Kulturstau Otting mit Brücke", "GEW": "SPA", "stat_von": 5349, "bauart": "Schützwehr (Wehr mit 3 Gleitschützen aus Eichenholz, Handbetrieben) mit Brücke", "baujahr": "1939", "upflicht": "NLWKN", "KTR": "MBGEA00500", "FSK": "03335702400011______", "bemerk": "FGE-Akz.: 62615-22-094", "beschreib": "Der Kulturstau Otting befindet sich im Landkreis Emsland in der Gemeinde Lünne. Es handelt sich um eine Stauanlage mit drei Schütztafeln und einer festen Wehrschwelle. Es gibt keinen festen Betriebsplan, Steuerung nach Bedarf. Der Stau hat eine Überfahrt.", "beschreib_lang": "Der Kulturstau Otting befindet sich im Landkreis Emsland in der Gemeinde Lünne bei Stat. 5+339. Bei dem Kulturstau handelt es sich um eine Stauanlage mit drei Schütztafeln und einer festen Wehrschwelle. Die Anlage hat keinen festen Betriebsplan und wird nach Bedarf gesteuert. Der Stau wird als Überfahrt genutzt._x000d_\nDas Wehr ist bedingt betriebsbereit. Um dieses Wehr auf Dauer betriebsbereit zu halten, muss der gesamte Beton, die Metallführungen der Schütze, sowie die Schütze selber saniert bzw. erneuert werden. Die direkt anliegende Brücke wurde seit Jahren nicht mehr geprüft, dort sind große Schlaglöcher vorhanden und die Geländer sind mehrfach gerissen, verbogen_x000d_\nund teilweise durchgerostet (Stand Januar 2025).", "foto1": "https://nlwkn.hannit-share.de/index.php/core/preview?fileId=11058137&x=1280&y=819&a=true", "foto2": "https://nlwkn.hannit-share.de/index.php/core/preview?fileId=11058140&x=1280&y=819&a=true", "foto3": "https://nlwkn.hannit-share.de/index.php/core/preview?fileId=11058143&x=1280&y=819&a=true", "foto4": "https://nlwkn.hannit-share.de/index.php/core/preview?fileId=11058146&x=1280&y=819&a=true", "link1": "https://nlwkn.hannit-share.de/index.php/core/preview?fileId=11058149&x=1280&y=819&a=true", "link2": null, "denkmal": "Nein", "AIS_NR": 654, "BW_buch": null, "Felder": 3, "Lichte_Breite": null, "Niedr_Klappe": null, "Ziel_OW1": 27.370000839233398, "Ziel_OW2": 28.170000076293899, "UW": 25.450000762939499, "Sohle_OW": 25.7700004577637, "Sohle_UW": 25.450000762939499, "Sohle_Tosb": 0.0, "Lage_Endschw": 0.0, "Fischpass": "keine", "tmp": 2390, "rwert": 392278, "hwert": 5805772 }, "geometry": { "type": "Point", "coordinates": [ 825652.647706106421538, 6871241.271268676966429 ] } },
{ "type": "Feature", "properties": { "ID_con": 2391, "bw_id": "SPA_WEH_7000", "name": "Kulturstau Butmeyer", "GEW": "SPA", "stat_von": 7003, "bauart": "Schützwehr (Wehr mit 3 Gleitschützen aus Eichenholz, Handbetrieben)", "baujahr": "1938", "upflicht": "NLWKN", "KTR": "MBGEA00400", "FSK": "03433102500033______", "bemerk": "FGE-Akz.: 62615-22-094", "beschreib": "Der Kulturstau Butmeye befindet sich im Landkreis Emsland in der Gemeinde Spelle. Es handelt sich um eine Stauanlage mit drei Schütztafeln und einer festen Wehrschwelle. Es gibt keinen festen Betriebsplan, Steuerung nach Bedarf.", "beschreib_lang": "Der Kulturstau Butmeye befindet sich im Landkreis Emsland in der Gemeinde Spelle. Es handelt sich um eine Stauanlage mit drei Schütztafeln und einer festen Wehrschwelle. Es gibt keinen festen Betriebsplan, Steuerung nach Bedarf._x000d_\nDas Wehr ist nur bedingt betriebsbereit. Die Metallführungen der Schütze sind teilweise komplett durchgerostet. Eine sichere Bedienung der Schütztafeln ist nicht gegeben. Um dieses Wehr auf Dauer betriebsbereit zu halten, muss der gesamte Beton, die Metallführungen der Schütze, sowie die Schütze selber saniert bzw. erneuert werden (Stand Januar 2025).", "foto1": "https://nlwkn.hannit-share.de/index.php/core/preview?fileId=11058152&x=1280&y=819&a=true", "foto2": "https://nlwkn.hannit-share.de/index.php/core/preview?fileId=11058155&x=1280&y=819&a=true", "foto3": "https://nlwkn.hannit-share.de/index.php/core/preview?fileId=11058158&x=1280&y=819&a=true", "foto4": "https://nlwkn.hannit-share.de/index.php/core/preview?fileId=11058161&x=1280&y=819&a=true", "link1": "https://nlwkn.hannit-share.de/index.php/core/preview?fileId=11058164&x=1280&y=819&a=true", "link2": "https://nlwkn.hannit-share.de/index.php/core/preview?fileId=11058167&x=1280&y=819&a=true", "denkmal": "Nein", "AIS_NR": 653, "BW_buch": null, "Felder": 3, "Lichte_Breite": null, "Niedr_Klappe": null, "Ziel_OW1": 28.450000762939499, "Ziel_OW2": 29.200000762939499, "UW": 26.469999313354499, "Sohle_OW": 27.7299995422363, "Sohle_UW": 26.469999313354499, "Sohle_Tosb": 0.0, "Lage_Endschw": 0.0, "Fischpass": "keine", "tmp": 2391, "rwert": 392689, "hwert": 5804526 }, "geometry": { "type": "Point", "coordinates": [ 826369.150060164625756, 6869213.636688604019582 ] } },
{ "type": "Feature", "properties": { "ID_con": 2392, "bw_id": "SPA_WEH_8590", "name": "Wehr Schulten", "GEW": "SPA", "stat_von": 8590, "bauart": "hydraulisches Wehr (mit Fischbauchklappe)", "baujahr": "1962", "upflicht": "NLWKN", "KTR": "MBGEA00300", "FSK": "034331010000220002__", "bemerk": "Anlage ist nicht funtkionstüchtig, Die Sicherheitstechnische Überprüfung konnte 2023 aufgrund eines vorh. Schadens im Schaltschrank (durchgebrannt) nicht durchgeführt werden", "beschreib": "Hydraulische Wehranlage. Steuerung nach Oberwasser, Anlage ist nicht funtkionstüchtig", "beschreib_lang": "Die Anlage ist nicht funktionstüchtig. Das Hydraulikaggregat wurde von der Elektronik abgeklemmt, weil ein Schutzschalter und ein Relais kaputt sind. Das Hydraulikaggragat und der Hydraulikzylinder haben Leckagen. Die Klappe wurde auf mittlerer Höhe in eine Stahlkette gehängt und kann ohne kostspielige Reparatur nicht bedient werden (Stand Januar 2025).", "foto1": "https://nlwkn.hannit-share.de/index.php/core/preview?fileId=11058170&x=1280&y=819&a=true", "foto2": "https://nlwkn.hannit-share.de/index.php/core/preview?fileId=11058173&x=1280&y=819&a=true", "foto3": "https://nlwkn.hannit-share.de/index.php/core/preview?fileId=11058176&x=1280&y=819&a=true", "foto4": "https://nlwkn.hannit-share.de/index.php/core/preview?fileId=11058179&x=1280&y=819&a=true", "link1": null, "link2": null, "denkmal": "Nein", "AIS_NR": 652, "BW_buch": null, "Felder": 1, "Lichte_Breite": null, "Niedr_Klappe": null, "Ziel_OW1": null, "Ziel_OW2": null, "UW": null, "Sohle_OW": null, "Sohle_UW": null, "Sohle_Tosb": 0.0, "Lage_Endschw": 0.0, "Fischpass": "keine", "tmp": 2392, "rwert": 393370, "hwert": 5803184 }, "geometry": { "type": "Point", "coordinates": [ 827529.976821496384218, 6867038.735250462777913 ] } },
{ "type": "Feature", "properties": { "ID_con": 2393, "bw_id": "SPA_WEH_9855", "name": "Wehr Venhaus", "GEW": "SPA", "stat_von": 9855, "bauart": "hydraulisches Wehr (mit Fischbauklappe)", "baujahr": "1962", "upflicht": "NLWKN", "KTR": "MBGEA00200", "FSK": "034331012000790002__", "bemerk": "Anlage ist nicht funtkionstüchtig", "beschreib": "Hydraulische Wehranlage. Steuerung nach Oberwasser, Anlage ist nicht funtkionstüchtig", "beschreib_lang": "Die Anlage ist nicht funktionstüchtig. Die Anlage ist verschlissen, viel Abrieb im Hydraulikoel. Die Elektrik ist Defekt. Der Elektromotor muss kostspielig erneuert bzw. repariert werden (Stand Januar 2025).", "foto1": "https://nlwkn.hannit-share.de/index.php/core/preview?fileId=11058182&x=1280&y=819&a=true", "foto2": "https://nlwkn.hannit-share.de/index.php/core/preview?fileId=11058185&x=1280&y=819&a=true", "foto3": "https://nlwkn.hannit-share.de/index.php/core/preview?fileId=11058188&x=1280&y=819&a=true", "foto4": "https://nlwkn.hannit-share.de/index.php/core/preview?fileId=11058191&x=1280&y=819&a=true", "link1": "https://nlwkn.hannit-share.de/index.php/core/preview?fileId=11058194&x=1280&y=819&a=true", "link2": "https://nlwkn.hannit-share.de/index.php/core/preview?fileId=11058197&x=1280&y=819&a=true", "denkmal": "Nein", "AIS_NR": 651, "BW_buch": null, "Felder": 1, "Lichte_Breite": null, "Niedr_Klappe": null, "Ziel_OW1": null, "Ziel_OW2": null, "UW": null, "Sohle_OW": null, "Sohle_UW": null, "Sohle_Tosb": 0.0, "Lage_Endschw": 0.0, "Fischpass": "keine", "tmp": 2393, "rwert": 394066, "hwert": 5802637 }, "geometry": { "type": "Point", "coordinates": [ 828686.744443531846628, 6866167.134246080182493 ] } },
{ "type": "Feature", "properties": { "ID_con": 1784, "bw_id": "VEC_WEH_94085", "name": "Vechtewehr Tinholt", "GEW": "VEC", "stat_von": 94085, "bauart": "zweifeldriges hydraulisches Klappenwehr", "baujahr": "1965", "upflicht": "NLWKN", "KTR": "MBGVE00100", "FSK": "03312602600040______", "bemerk": null, "beschreib": "Vechtewehr Tinholt (zweifeldriges hydraulisches Klappenwehr) mit Umgehungsgerinne. Die Umstellung von Sommer-/Winterstau erfolgt in der Zeit vom 01.04-15.04 und vom 01.10-15.10.", "beschreib_lang": "Vechtewehr Tinholt (zweifeldriges hydraulisches Klappenwehr) mit Umgehungsgerinne. Die Umstellung von Sommer-/Winterstau erfolgt in der Zeit vom 01.04-15.04 und vom 01.10-15.10.", "foto1": "https://nlwkn.hannit-share.de/index.php/core/preview?fileId=11057900&x=1280&y=819&a=true", "foto2": "https://nlwkn.hannit-share.de/index.php/core/preview?fileId=11057903&x=1280&y=819&a=true", "foto3": "https://nlwkn.hannit-share.de/index.php/core/preview?fileId=11057906&x=1280&y=819&a=true", "foto4": "https://nlwkn.hannit-share.de/index.php/core/preview?fileId=11057909&x=1280&y=819&a=true", "link1": null, "link2": null, "denkmal": "Nein", "AIS_NR": 657, "BW_buch": null, "Felder": 2, "Lichte_Breite": "15", "Niedr_Klappe": 10.8999996185303, "Ziel_OW1": 12.5, "Ziel_OW2": 11.8999996185303, "UW": 9.3999996185302699, "Sohle_OW": 10.5, "Sohle_UW": 9.3999996185302699, "Sohle_Tosb": 9.3999996185302699, "Lage_Endschw": 10.0, "Fischpass": "Umgehungsgerinne mit zwei Läufen (Sommer-/Winterstau)", "tmp": 1784, "rwert": 360950, "hwert": 5825409 }, "geometry": { "type": "Point", "coordinates": [ 773522.70794877759181, 6902195.873765335418284 ] } },
{ "type": "Feature", "properties": { "ID_con": 1778, "bw_id": "VEC_WEH_101895", "name": "Vechtewehr Neuenhaus", "GEW": "VEC", "stat_von": 101895, "bauart": "zweifeldriges hydraulisches Klappenwehr", "baujahr": "1968", "upflicht": "NLWKN", "KTR": "MBGVE00200", "FSK": "033147019004450109__", "bemerk": null, "beschreib": "Vechtewehr Neuenhaus (zweifeldriges hydraulisches Klappenwehr) mit Umgehungsgerinne. Die Umstellung von Sommer-/Winterstau erfolgt in der Zeit vom 01.04-15.04 und vom 01.10-15.10.", "beschreib_lang": "Das Vechtewehr Neuenhaus besteht auch zwei Wehrfeldern mit jeweils etwa 13,00 m Breite und einer Fischbauchklappe. Über das Wehr führt eine nichtöffentliche Fußgängerbrücke für Betriebs- und Unterhaltungszwecke. Die Fischaufstiegshilfe (Umgehungsgerinne, nördlich gelegen) ist naturnah ausgebildet. Das Bauwerk wurde 1968 errichtet", "foto1": "https://nlwkn.hannit-share.de/index.php/core/preview?fileId=11057810&x=1280&y=819&a=true", "foto2": "https://nlwkn.hannit-share.de/index.php/core/preview?fileId=11057813&x=1280&y=819&a=true", "foto3": "https://nlwkn.hannit-share.de/index.php/core/preview?fileId=11057816&x=1280&y=819&a=true", "foto4": "https://nlwkn.hannit-share.de/index.php/core/preview?fileId=11057819&x=1280&y=819&a=true", "link1": "https://nlwkn.hannit-share.de/index.php/core/preview?fileId=11057822&x=1280&y=819&a=true", "link2": null, "denkmal": "Nein", "AIS_NR": 658, "BW_buch": null, "Felder": 2, "Lichte_Breite": "13", "Niedr_Klappe": 13.1000003814697, "Ziel_OW1": 14.699999809265099, "Ziel_OW2": 14.1000003814697, "UW": 11.6300001144409, "Sohle_OW": 12.6000003814697, "Sohle_UW": 11.6300001144409, "Sohle_Tosb": 11.6300001144409, "Lage_Endschw": 12.2299995422363, "Fischpass": "Umbau Fischpass in naturnahen Fischaufstieg, Umgehungsgerinne (zweiläufig) in 2004", "tmp": 1778, "rwert": 361929, "hwert": 5819404 }, "geometry": { "type": "Point", "coordinates": [ 775407.199418387957849, 6892368.099471463821828 ] } },
{ "type": "Feature", "properties": { "ID_con": 1779, "bw_id": "VEC_WEH_106360", "name": "Vechtewehr Grasdorf", "GEW": "VEC", "stat_von": 106360, "bauart": "zweifeldriges hydraulisches Klappenwehr", "baujahr": "1967", "upflicht": "NLWKN", "KTR": "MBGVE00300", "FSK": "033147011000230006__", "bemerk": "FGE-Akz.: 62615-21-7", "beschreib": "Vechtewehr Grasdorf (zweifeldriges hydraulisches Klappenwehr) mit Kombination aus Schlitzpass und Borstenfischpass. Die Klappe ist aktuell auf 15,76 m NN festgesetzt.", "beschreib_lang": "Vechtewehr Grasdorf (zweifeldriges hydraulisches Klappenwehr) mit Kombination aus Schlitzpass und Borstenfischpass. Die Klappe ist aktuell auf 15,76 m NN festgesetzt", "foto1": "https://nlwkn.hannit-share.de/index.php/core/preview?fileId=11057825&x=1280&y=819&a=true", "foto2": "https://nlwkn.hannit-share.de/index.php/core/preview?fileId=11057828&x=1280&y=819&a=true", "foto3": "https://nlwkn.hannit-share.de/index.php/core/preview?fileId=11057831&x=1280&y=819&a=true", "foto4": "https://nlwkn.hannit-share.de/index.php/core/preview?fileId=11057834&x=1280&y=819&a=true", "link1": null, "link2": null, "denkmal": "Nein", "AIS_NR": 659, "BW_buch": null, "Felder": 2, "Lichte_Breite": "13", "Niedr_Klappe": 14.920000076293899, "Ziel_OW1": 16.600000381469702, "Ziel_OW2": 16.100000381469702, "UW": 13.5200004577637, "Sohle_OW": 14.420000076293899, "Sohle_UW": 13.5200004577637, "Sohle_Tosb": 13.5200004577637, "Lage_Endschw": 14.1199998855591, "Fischpass": "Kombination aus Schlitzpass und Borstenfischpass", "tmp": 1779, "rwert": 364736, "hwert": 5816960 }, "geometry": { "type": "Point", "coordinates": [ 780118.810143206384964, 6888481.629816360771656 ] } },
{ "type": "Feature", "properties": { "ID_con": 1780, "bw_id": "VEC_WEH_114815", "name": "Ölmühlenwehr", "GEW": "VEC", "stat_von": 114815, "bauart": "einfeldriges hydraulisches Klappenwehr", "baujahr": "1970", "upflicht": "NLWKN", "KTR": "MBGVE00900", "FSK": "033151016000950002__", "bemerk": null, "beschreib": "Ölmühlenwehr (einfeldriges hydraulisches Klappenwehr) mit Borstenfischpass. Das Wehr hat nur ein Stauziel", "beschreib_lang": "Ölmühlenwehr (einfeldriges hydraulisches Klappenwehr) mit Borstenfischpass. Das Wehr hat nur ein Stauziel", "foto1": "https://nlwkn.hannit-share.de/index.php/core/preview?fileId=11057837&x=1280&y=819&a=true", "foto2": "https://nlwkn.hannit-share.de/index.php/core/preview?fileId=11057840&x=1280&y=819&a=true", "foto3": "https://nlwkn.hannit-share.de/index.php/core/preview?fileId=11057843&x=1280&y=819&a=true", "foto4": "https://nlwkn.hannit-share.de/index.php/core/preview?fileId=11057846&x=1280&y=819&a=true", "link1": null, "link2": null, "denkmal": "Nein", "AIS_NR": 1186, "BW_buch": null, "Felder": 1, "Lichte_Breite": "14", "Niedr_Klappe": 19.180000305175799, "Ziel_OW1": 21.649999618530298, "Ziel_OW2": 21.649999618530298, "UW": 16.340000152587901, "Sohle_OW": 19.180000305175799, "Sohle_UW": 16.340000152587901, "Sohle_Tosb": 16.340000152587901, "Lage_Endschw": 17.340000152587901, "Fischpass": "Borstenfischpass", "tmp": 1780, "rwert": 368662, "hwert": 5811360 }, "geometry": { "type": "Point", "coordinates": [ 786796.623091104440391, 6879463.912799936719239 ] } },
{ "type": "Feature", "properties": { "ID_con": 1781, "bw_id": "VEC_WEH_121585", "name": "Vechtewehr Brandlecht", "GEW": "VEC", "stat_von": 121585, "bauart": "zweifeldriges hydraulisches Klappenwehr", "baujahr": "1976", "upflicht": "NLWKN", "KTR": "MBGVE00400", "FSK": "033152003000240012__", "bemerk": "FGE-Akz. 62615-21-6, Für Wehr wird keine Prüfung n. DIN 1067 durchgeführt. Siehe Vermerk v. 27.06.2022", "beschreib": "Vechtewehr Brandlecht (zweifeldriges hydraulisches Klappenwehr) mit Borstenfischpass. Die Umstellung von Sommer-/Winterstau erfolgt in der Zeit vom 01.04-15.04 und vom 01.10-15.10.", "beschreib_lang": "Vechtewehr Brandlecht (zweifeldriges hydraulisches Klappenwehr) mit Borstenfischpass. Die Umstellung von Sommer-/Winterstau erfolgt in der Zeit vom 01.04-15.04 und vom 01.10-15.10.", "foto1": "https://nlwkn.hannit-share.de/index.php/core/preview?fileId=11057849&x=1280&y=819&a=true", "foto2": "https://nlwkn.hannit-share.de/index.php/core/preview?fileId=11057852&x=1280&y=819&a=true", "foto3": "https://nlwkn.hannit-share.de/index.php/core/preview?fileId=11057855&x=1280&y=819&a=true", "foto4": "https://nlwkn.hannit-share.de/index.php/core/preview?fileId=11057858&x=1280&y=819&a=true", "link1": "https://nlwkn.hannit-share.de/index.php/core/preview?fileId=11057861&x=1280&y=819&a=true", "link2": null, "denkmal": "Nein", "AIS_NR": 660, "BW_buch": null, "Felder": 2, "Lichte_Breite": "16", "Niedr_Klappe": 21.9799995422363, "Ziel_OW1": 23.200000762939499, "Ziel_OW2": 22.700000762939499, "UW": 20.680000305175799, "Sohle_OW": 21.4799995422363, "Sohle_UW": 20.680000305175799, "Sohle_Tosb": 20.680000305175799, "Lage_Endschw": 21.2299995422363, "Fischpass": "Borstenfischpass", "tmp": 1781, "rwert": 372432, "hwert": 5807213 }, "geometry": { "type": "Point", "coordinates": [ 793142.809253800543956, 6872825.513932462781668 ] } },
{ "type": "Feature", "properties": { "ID_con": 1783, "bw_id": "VEC_WEH_138650", "name": "Vechtewehr Samern", "GEW": "VEC", "stat_von": 138650, "bauart": "einfeldriges hydraulisches Klappenwehr", "baujahr": "1977", "upflicht": "NLWKN", "KTR": "MBGVE00600", "FSK": "03421201800299______", "bemerk": null, "beschreib": "Vechtewehr Samern (einfeldriges hydraulisches Klappenwehr) mit Beckenfischpass (Schlitzpass ). Die Umstellung von Sommer-/Winterstau erfolgt in der Zeit vom 01.04-15.04 und vom 01.10-15.10.", "beschreib_lang": "Vechtewehr Samern (einfeldriges hydraulisches Klappenwehr) mit Beckenfischpass (Schlitzpass ). Ganzjähriges Stauziel liegt bei 32,20 m NN. Der HQ100 Wasserstand beim Wehr liegt bei 34,80 m NHN. Am 27.08.2010 wurde beim Hochwasser ein Wasserstand von 34,20 m NN gemessen. Die Tiefstlage der Klappe liegt bei 31,07 m NN. Bei einem Abfluss von 72,00 qbm/s erreicht die Klappe ihre Höchstlage von 32,20 m NN. Die Klappe bleibt auch bei zunehmenden Abflüssen in Höchststellung. Die Tosbecken-/Unterwassersohle liegt bei 29,28 m NN. Die Oberwasssersohle (höhengleich mit Klappenauflager) bei 30,52 m NN", "foto1": "https://nlwkn.hannit-share.de/index.php/core/preview?fileId=11057882&x=1280&y=819&a=true", "foto2": "https://nlwkn.hannit-share.de/index.php/core/preview?fileId=11057885&x=1280&y=819&a=true", "foto3": "https://nlwkn.hannit-share.de/index.php/core/preview?fileId=11057888&x=1280&y=819&a=true", "foto4": "https://nlwkn.hannit-share.de/index.php/core/preview?fileId=11057891&x=1280&y=819&a=true", "link1": null, "link2": "https://nlwkn.hannit-share.de/index.php/core/preview?fileId=11057897&x=1280&y=819&a=true", "denkmal": "Nein", "AIS_NR": 662, "BW_buch": null, "Felder": 1, "Lichte_Breite": "7", "Niedr_Klappe": 30.5200004577637, "Ziel_OW1": 32.200000762939503, "Ziel_OW2": 32.200000762939503, "UW": 29.280000686645501, "Sohle_OW": 30.5200004577637, "Sohle_UW": 29.280000686645501, "Sohle_Tosb": 29.280000686645501, "Lage_Endschw": 30.0, "Fischpass": "Beckenfischpass (Schlitzpass mit Sedimentauflage) ??", "tmp": 1783, "rwert": 380197, "hwert": 5796027 }, "geometry": { "type": "Point", "coordinates": [ 806285.862869987031445, 6854826.165048766881227 ] } }
]
}
